STARLINK-1579
1 26083C 20055BJ  21325.16882287 -.00015402  00000-0 -10318-2 0  3250
2 26083  53.0534 302.4710 0001961  64.0134  48.3156 15.06418895    10
